{"type": "FeatureCollection", "features": [ {"type": "Feature", "properties": {"norad_id": 43010, "name": "FENGYUN 3D", "group": "weather", "lat": 44.27018331288453, "lon": 153.68557807764768, "alt_km": 821.5750065669545, "timestamp": "2025-12-24T07:45:05.841886+00:00", "meta": {"OBJECT_NAME": "FENGYUN 3D", "OBJECT_ID": "2017-072A", "EPOCH": "2025-12-23T22:39:38.982816", "MEAN_MOTION": 14.19687168, "ECCENTRICITY": 0.00014819, "INCLINATION": 98.991, "RA_OF_ASC_NODE": 324.4225, "ARG_OF_PERICENTER": 150.8272, "MEAN_ANOMALY": 209.2986, "EPHEMERIS_TYPE": 0, "CLASSIFICATION_TYPE": "U", "NORAD_CAT_ID": 43010, "ELEMENT_SET_NO": 999, "REV_AT_EPOCH": 42012, "BSTAR": 2.641189e-05, "MEAN_MOTION_DOT": 1e-07, "MEAN_MOTION_DDOT": 0}, "tle": {"line1": "1 43010U 17072A   25357.94420119  .00000010  00000+0  26412-4 0  9996", "line2": "2 43010  98.9910 324.4225 0001481 150.8272 209.2986 14.19687168420123"}}, "geometry": {"type": "Point", "coordinates": [153.68557807764768, 44.27018331288453]}}, {"type": "Feature", "properties": {"norad_id": 43013, "name": "NOAA 20 (JPSS-1)", "group": "weather", "lat": -76.40966093727509, "lon": -25.868944567764, "alt_km": 835.5497019061677, "timestamp": "2025-12-24T07:45:05.841897+00:00", "meta": {"OBJECT_NAME": "NOAA 20 (JPSS-1)", "OBJECT_ID": "2017-073A", "EPOCH": "2025-12-23T21:58:34.023648", "MEAN_MOTION": 14.19528572, "ECCENTRICITY": 0.00020911, "INCLINATION": 98.7614, "RA_OF_ASC_NODE": 294.0909, "ARG_OF_PERICENTER": 71.1101, "MEAN_ANOMALY": 289.0301, "EPHEMERIS_TYPE": 0, "CLASSIFICATION_TYPE": "U", "NORAD_CAT_ID": 43013, "ELEMENT_SET_NO": 999, "REV_AT_EPOCH": 41960, "BSTAR": 6.2874532e-05, "MEAN_MOTION_DOT": 8.9e-07, "MEAN_MOTION_DDOT": 0}, "tle": {"line1": "1 43013U 17073A   25357.91567157  .00000089  00000+0  62875-4 0  9990", "line2": "2 43013  98.7614 294.0909 0002091  71.1101 289.0301 14.19528572419601"}}, "geometry": {"type": "Point", "coordinates": [-25.868944567764, -76.40966093727509]}}, {"type": "Feature", "properties": {"norad_id": 43226, "name": "GOES 17", "group": "weather", "lat": 0.2697245160334243, "lon": 119.85377685877292, "alt_km": 35797.98052812336, "timestamp": "2025-12-24T07:45:05.841909+00:00", "meta": {"OBJECT_NAME": "GOES 17", "OBJECT_ID": "2018-022A", "EPOCH": "2025-12-23T19:33:14.560704", "MEAN_MOTION": 1.00272405, "ECCENTRICITY": 0.00030351, "INCLINATION": 0.4845, "RA_OF_ASC_NODE": 89.0768, "ARG_OF_PERICENTER": 190.7857, "MEAN_ANOMALY": 16.5445, "EPHEMERIS_TYPE": 0, "CLASSIFICATION_TYPE": "U", "NORAD_CAT_ID": 43226, "ELEMENT_SET_NO": 999, "REV_AT_EPOCH": 2866, "BSTAR": 0, "MEAN_MOTION_DOT": -1.62e-06, "MEAN_MOTION_DDOT": 0}, "tle": {"line1": "1 43226U 18022A   25357.81475186 -.00000162  00000+0  00000+0 0  9990", "line2": "2 43226   0.4845  89.0768 0003035 190.7857  16.5445  1.00272405 28664"}}, "geometry": {"type": "Point", "coordinates": [119.85377685877292, 0.2697245160334243]}}, {"type": "Feature", "properties": {"norad_id": 43491, "name": "FENGYUN 2H", "group": "weather", "lat": -1.2135308878702837, "lon": -71.29447039734853, "alt_km": 35778.904156307086, "timestamp": "2025-12-24T07:45:05.841922+00:00", "meta": {"OBJECT_NAME": "FENGYUN 2H", "OBJECT_ID": "2018-050A", "EPOCH": "2025-12-23T22:04:08.084928", "MEAN_MOTION": 1.00270734, "ECCENTRICITY": 0.00023814, "INCLINATION": 2.5779, "RA_OF_ASC_NODE": 81.212, "ARG_OF_PERICENTER": 166.7018, "MEAN_ANOMALY": 255.1644, "EPHEMERIS_TYPE": 0, "CLASSIFICATION_TYPE": "U", "NORAD_CAT_ID": 43491, "ELEMENT_SET_NO": 999, "REV_AT_EPOCH": 2768, "BSTAR": 0, "MEAN_MOTION_DOT": -1.1e-06, "MEAN_MOTION_DDOT": 0}, "tle": {"line1": "1 43491U 18050A   25357.91953802 -.00000110  00000+0  00000+0 0  9995", "line2": "2 43491   2.5779  81.2120 0002381 166.7018 255.1644  1.00270734 27684"}}, "geometry": {"type": "Point", "coordinates": [-71.29447039734853, -1.2135308878702837]}}, {"type": "Feature", "properties": {"norad_id": 43689, "name": "METOP-C", "group": "weather", "lat": 36.411554660356884, "lon": -117.60783396007889, "alt_km": 818.0114195477436, "timestamp": "2025-12-24T07:45:05.841944+00:00", "meta": {"OBJECT_NAME": "METOP-C", "OBJECT_ID": "2018-087A", "EPOCH": "2025-12-23T22:38:04.288416", "MEAN_MOTION": 14.21488516, "ECCENTRICITY": 6.947e-05, "INCLINATION": 98.6913, "RA_OF_ASC_NODE": 55.5402, "ARG_OF_PERICENTER": 18.8825, "MEAN_ANOMALY": 341.2378, "EPHEMERIS_TYPE": 0, "CLASSIFICATION_TYPE": "U", "NORAD_CAT_ID": 43689, "ELEMENT_SET_NO": 999, "REV_AT_EPOCH": 36993, "BSTAR": 7.6421108e-05, "MEAN_MOTION_DOT": 1.24e-06, "MEAN_MOTION_DDOT": 0}, "tle": {"line1": "1 43689U 18087A   25357.94310519  .00000124  00000+0  76421-4 0  9998", "line2": "2 43689  98.6913  55.5402 0000694  18.8825 341.2378 14.21488516369938"}}, "geometry": {"type": "Point", "coordinates": [-117.60783396007889, 36.411554660356884]}}, {"type": "Feature", "properties": {"norad_id": 43823, "name": "GEO-KOMPSAT-2A", "group": "weather", "lat": -0.01931326667949285, "lon": -22.379898695074758, "alt_km": 35787.17610231824, "timestamp": "2025-12-24T07:45:05.841956+00:00", "meta": {"OBJECT_NAME": "GEO-KOMPSAT-2A", "OBJECT_ID": "2018-100A", "EPOCH": "2025-12-23T18:52:41.269728", "MEAN_MOTION": 1.00270306, "ECCENTRICITY": 2.833e-05, "INCLINATION": 0.0456, "RA_OF_ASC_NODE": 176.9766, "ARG_OF_PERICENTER": 280.5392, "MEAN_ANOMALY": 46.4855, "EPHEMERIS_TYPE": 0, "CLASSIFICATION_TYPE": "U", "NORAD_CAT_ID": 43823, "ELEMENT_SET_NO": 999, "REV_AT_EPOCH": 2587, "BSTAR": 0, "MEAN_MOTION_DOT": -3.23e-06, "MEAN_MOTION_DDOT": 0}, "tle": {"line1": "1 43823U 18100A   25357.78658877 -.00000323  00000+0  00000+0 0  9995", "line2": "2 43823   0.0456 176.9766 0000283 280.5392  46.4855  1.00270306 25874"}}, "geometry": {"type": "Point", "coordinates": [-22.379898695074758, -0.01931326667949285]}}, {"type": "Feature", "properties": {"norad_id": 44387, "name": "METEOR-M2 2", "group": "weather", "lat": -25.587185156865537, "lon": -17.504219852753746, "alt_km": 817.556161605824, "timestamp": "2025-12-24T07:45:05.841973+00:00", "meta": {"OBJECT_NAME": "METEOR-M2 2", "OBJECT_ID": "2019-038A", "EPOCH": "2025-12-23T21:45:25.699680", "MEAN_MOTION": 14.24295722, "ECCENTRICITY": 0.00017607, "INCLINATION": 98.8982, "RA_OF_ASC_NODE": 337.772, "ARG_OF_PERICENTER": 127.5638, "MEAN_ANOMALY": 232.5701, "EPHEMERIS_TYPE": 0, "CLASSIFICATION_TYPE": "U", "NORAD_CAT_ID": 44387, "ELEMENT_SET_NO": 999, "REV_AT_EPOCH": 33634, "BSTAR": 1.4573804e-05, "MEAN_MOTION_DOT": -1.2e-07, "MEAN_MOTION_DDOT": 0}, "tle": {"line1": "1 44387U 19038A   25357.90654745 -.00000012  00000+0  14574-4 0  9997", "line2": "2 44387  98.8982 337.7720 0001760 127.5638 232.5701 14.24295722336344"}}, "geometry": {"type": "Point", "coordinates": [-17.504219852753746, -25.587185156865537]}}, {"type": "Feature", "properties": {"norad_id": 47719, "name": "ARKTIKA-M 1", "group": "weather", "lat": 61.89899692139204, "lon": -168.6961317205237, "alt_km": 37698.590421283116, "timestamp": "2025-12-24T07:45:05.841996+00:00", "meta": {"OBJECT_NAME": "ARKTIKA-M 1", "OBJECT_ID": "2021-016A", "EPOCH": "2025-12-23T01:01:51.743136", "MEAN_MOTION": 2.00630806, "ECCENTRICITY": 0.72093828, "INCLINATION": 63.1759, "RA_OF_ASC_NODE": 82.5898, "ARG_OF_PERICENTER": 269.1646, "MEAN_ANOMALY": 15.5425, "EPHEMERIS_TYPE": 0, "CLASSIFICATION_TYPE": "U", "NORAD_CAT_ID": 47719, "ELEMENT_SET_NO": 999, "REV_AT_EPOCH": 3525, "BSTAR": 0, "MEAN_MOTION_DOT": -6.7e-07, "MEAN_MOTION_DDOT": 0}, "tle": {"line1": "1 47719U 21016A   25357.04295999 -.00000067  00000+0  00000+0 0  9999", "line2": "2 47719  63.1759  82.5898 7209382 269.1646  15.5425  2.00630806 35258"}}, "geometry": {"type": "Point", "coordinates": [-168.6961317205237, 61.89899692139204]}}, {"type": "Feature", "properties": {"norad_id": 49008, "name": "FENGYUN 3E", "group": "weather", "lat": 68.63871020904786, "lon": -158.1116673225942, "alt_km": 818.9872310804967, "timestamp": "2025-12-24T07:45:05.842013+00:00", "meta": {"OBJECT_NAME": "FENGYUN 3E", "OBJECT_ID": "2021-062A", "EPOCH": "2025-12-23T22:46:53.020992", "MEAN_MOTION": 14.19880168, "ECCENTRICITY": 8.902e-05, "INCLINATION": 98.7473, "RA_OF_ASC_NODE": 358.337, "ARG_OF_PERICENTER": 194.3119, "MEAN_ANOMALY": 165.8033, "EPHEMERIS_TYPE": 0, "CLASSIFICATION_TYPE": "U", "NORAD_CAT_ID": 49008, "ELEMENT_SET_NO": 999, "REV_AT_EPOCH": 23171, "BSTAR": -0.00013999704, "MEAN_MOTION_DOT": -3.41e-06, "MEAN_MOTION_DDOT": 0}, "tle": {"line1": "1 49008U 21062A   25357.94922478 -.00000341  00000+0 -14000-3 0  9996", "line2": "2 49008  98.7473 358.3370 0000890 194.3119 165.8033 14.19880168231711"}}, "geometry": {"type": "Point", "coordinates": [-158.1116673225942, 68.63871020904786]}}, {"type": "Feature", "properties": {"norad_id": 51850, "name": "GOES 18", "group": "weather", "lat": 0.006218209768875833, "lon": 72.36974516841411, "alt_km": 35786.69976025404, "timestamp": "2025-12-24T07:45:05.842025+00:00", "meta": {"OBJECT_NAME": "GOES 18", "OBJECT_ID": "2022-021A", "EPOCH": "2025-12-23T09:03:24.767136", "MEAN_MOTION": 1.00270861, "ECCENTRICITY": 3.517e-05, "INCLINATION": 0.0106, "RA_OF_ASC_NODE": 106.0734, "ARG_OF_PERICENTER": 218.6088, "MEAN_ANOMALY": 126.3393, "EPHEMERIS_TYPE": 0, "CLASSIFICATION_TYPE": "U", "NORAD_CAT_ID": 51850, "ELEMENT_SET_NO": 999, "REV_AT_EPOCH": 483, "BSTAR": 0, "MEAN_MOTION_DOT": 1.18e-06, "MEAN_MOTION_DDOT": 0}, "tle": {"line1": "1 51850U 22021A   25357.37736999  .00000118  00000+0  00000+0 0  9999", "line2": "2 51850   0.0106 106.0734 0000351 218.6088 126.3393  1.00270861  4838"}}, "geometry": {"type": "Point", "coordinates": [72.36974516841411, 0.006218209768875833]}}]}